{
  "norad_id": 68865,
  "name": "KUIPER-00353",
  "history": [
    {
      "epoch": "2026-05-02T10:00:03.000096Z",
      "apogee_km": 451.97918763862344,
      "perigee_km": 450.07111973288374,
      "latitude_deg": 12.236731282989814,
      "longitude_deg": -96.43444437428037,
      "height_km": 451.03763018301197,
      "semi_major_axis_km": 6829.162153685753,
      "eccentricity": 0.0001397,
      "inclination_deg": 51.8826,
      "raan_deg": 103.6554,
      "arg_perigee_deg": 73.5622,
      "mean_anomaly_deg": 90.7916,
      "mean_motion_rev_day": 15.38337492
    }
  ]
}