{"fetched_at":"2026-05-03T06:27:58Z","count":17151,"tles":[{"name":"KUIPER-00353","line1":"1 68865U 26095B   26122.41670139  .00070514  00000+0  18300-2 0  9999","line2":"2 68865  51.8826 103.6554 0001397  73.5622  90.7916 15.38337492  1316","category":"Other"}]}